[{"OBJECT_NAME":"STARLINK-5320","OBJECT_ID":"2023-010W","EPOCH":"2026-03-09T22:25:03.019872","MEAN_MOTION":14.98339076,"ECCENTRICITY":0.00029837,"INCLINATION":70.0011,"RA_OF_ASC_NODE":23.927,"ARG_OF_PERICENTER":267.5358,"MEAN_ANOMALY":92.5459,"EPHEMERIS_TYPE":0,"CLASSIFICATION_TYPE":"U","NORAD_CAT_ID":55289,"ELEMENT_SET_NO":999,"REV_AT_EPOCH":17330,"BSTAR":-0.00034866534,"MEAN_MOTION_DOT":-4.252e-5,"MEAN_MOTION_DDOT":0},{"OBJECT_NAME":"HAWK-8A","OBJECT_ID":"2024-066B","EPOCH":"2026-03-09T09:46:26.156352","MEAN_MOTION":14.98766556,"ECCENTRICITY":0.00042143,"INCLINATION":45.5937,"RA_OF_ASC_NODE":72.3645,"ARG_OF_PERICENTER":254.4969,"MEAN_ANOMALY":105.5447,"EPHEMERIS_TYPE":0,"CLASSIFICATION_TYPE":"U","NORAD_CAT_ID":59443,"ELEMENT_SET_NO":999,"REV_AT_EPOCH":10486,"BSTAR":0.0002089936,"MEAN_MOTION_DOT":2.325e-5,"MEAN_MOTION_DDOT":0}]
